{
  "norad_id": 64163,
  "name": "STARLINK-34340",
  "history": [
    {
      "epoch": "2026-03-28T21:08:28.713696Z",
      "apogee_km": 550.3624807908618,
      "perigee_km": 548.628355843909,
      "latitude_deg": 4.393725427520449e-05,
      "longitude_deg": -3.0094248763138336,
      "height_km": 553.1176513155706,
      "semi_major_axis_km": 6927.632418317385,
      "eccentricity": 0.00012516,
      "inclination_deg": 97.6044,
      "raan_deg": 140.4052,
      "arg_perigee_deg": 130.0989,
      "mean_anomaly_deg": 230.0348,
      "mean_motion_rev_day": 15.0565513
    },
    {
      "epoch": "2026-03-29T03:31:16.707360Z",
      "apogee_km": 550.379260353503,
      "perigee_km": 548.6237967503666,
      "latitude_deg": -1.4041431439200207e-05,
      "longitude_deg": -98.70960796732273,
      "height_km": 553.1697658939041,
      "semi_major_axis_km": 6927.6385285519345,
      "eccentricity": 0.0001267,
      "inclination_deg": 97.6046,
      "raan_deg": 140.667,
      "arg_perigee_deg": 133.5202,
      "mean_anomaly_deg": 226.613,
      "mean_motion_rev_day": 15.05653138
    },
    {
      "epoch": "2026-03-30T01:51:04.702464Z",
      "apogee_km": 550.4566003063119,
      "perigee_km": 548.5296107161621,
      "latitude_deg": 3.2209045504952524e-05,
      "longitude_deg": -73.65905364330209,
      "height_km": 553.1401753669339,
      "semi_major_axis_km": 6927.630105511236,
      "eccentricity": 0.00013908,
      "inclination_deg": 97.6042,
      "raan_deg": 141.5846,
      "arg_perigee_deg": 127.2762,
      "mean_anomaly_deg": 232.8592,
      "mean_motion_rev_day": 15.05655884
    },
    {
      "epoch": "2026-03-30T09:49:34.694112Z",
      "apogee_km": 550.4777885865506,
      "perigee_km": 548.5072936398756,
      "latitude_deg": 2.3004963611077567e-05,
      "longitude_deg": 166.71616124603497,
      "height_km": 553.1428473137424,
      "semi_major_axis_km": 6927.629541113212,
      "eccentricity": 0.00014222,
      "inclination_deg": 97.6042,
      "raan_deg": 141.9123,
      "arg_perigee_deg": 126.5574,
      "mean_anomaly_deg": 233.5784,
      "mean_motion_rev_day": 15.05656068
    },
    {
      "epoch": "2026-03-30T20:59:28.841568Z",
      "apogee_km": 550.4946591928883,
      "perigee_km": 548.4881409030977,
      "latitude_deg": 5.849567758345165e-05,
      "longitude_deg": -0.7592892671843192,
      "height_km": 553.1420635757981,
      "semi_major_axis_km": 6927.628400047993,
      "eccentricity": 0.00014482,
      "inclination_deg": 97.6039,
      "raan_deg": 142.371,
      "arg_perigee_deg": 125.8269,
      "mean_anomaly_deg": 234.3093,
      "mean_motion_rev_day": 15.0565644
    },
    {
      "epoch": "2026-03-31T03:22:16.831776Z",
      "apogee_km": 550.524376582548,
      "perigee_km": 548.4562027314932,
      "latitude_deg": 3.5980478613047216e-05,
      "longitude_deg": -96.45916231374157,
      "height_km": 553.141009736106,
      "semi_major_axis_km": 6927.62728965702,
      "eccentricity": 0.00014927,
      "inclination_deg": 97.6039,
      "raan_deg": 142.6331,
      "arg_perigee_deg": 124.6127,
      "mean_anomaly_deg": 235.5241,
      "mean_motion_rev_day": 15.05656802
    },
    {
      "epoch": "2026-04-01T20:50:28.870080Z",
      "apogee_km": 550.2824135497849,
      "perigee_km": 548.6793627704646,
      "latitude_deg": -3.641112590264124e-05,
      "longitude_deg": 1.490177155045905,
      "height_km": 553.1008000368321,
      "semi_major_axis_km": 6927.6178881601245,
      "eccentricity": 0.0001157,
      "inclination_deg": 97.6034,
      "raan_deg": 144.3357,
      "arg_perigee_deg": 133.9136,
      "mean_anomaly_deg": 226.2186,
      "mean_motion_rev_day": 15.05659867
    },
    {
      "epoch": "2026-04-02T20:45:58.867488Z",
      "apogee_km": 550.6604230100074,
      "perigee_km": 548.2662443346899,
      "latitude_deg": 2.3331507917852106e-05,
      "longitude_deg": 2.6150159840584006,
      "height_km": 553.0517416079789,
      "semi_major_axis_km": 6927.600333672348,
      "eccentricity": 0.0001728,
      "inclination_deg": 97.6024,
      "raan_deg": 145.3181,
      "arg_perigee_deg": 116.0429,
      "mean_anomaly_deg": 244.0976,
      "mean_motion_rev_day": 15.0566559
    }
  ]
}